NORAD_CAT_ID,OBJECT_NAME,OBJECT_TYPE,EPOCH,MEAN_MOTION,ECCENTRICITY,INCLINATION,RA_OF_ASC_NODE,ARG_OF_PERICENTER,MEAN_ANOMALY,BSTAR,MEAN_MOTION_DOT,MEAN_MOTION_DDOT,TLE_LINE0,TLE_LINE1,TLE_LINE2,SEMIMAJOR_AXIS,PERIOD,APOGEE,PERIGEE,DECAYED
53173.0,STARLINK-4300,PAYLOAD,2024-05-12 13:18:59,15.08770262,0.0001745,53.2164,249.5065,122.0805,238.0356,-0.0016218,-0.00025957,0.0,0 STARLINK-4300,1 53173U 22083AT  24133.55486032 -.00025957  00000-0 -16218-2 0  9990,2 53173  53.2164 249.5065 0001745 122.0805 238.0356 15.08770262101779,6918.094,95.442,541.166,538.751,0.0
53173.0,STARLINK-4300,PAYLOAD,2024-05-12 14:54:22,15.08805843,0.0001225,53.2166,249.209,88.2741,271.8392,-0.0006055,-9.902e-05,0.0,0 STARLINK-4300,1 53173U 22083AT  24133.62109536 -.00009902  00000-0 -60550-3 0  9990,2 53173  53.2166 249.2090 0001225  88.2741 271.8392 15.08805843101141,6917.985,95.44,540.697,539.002,0.0
53173.0,STARLINK-4300,PAYLOAD,2024-05-12 16:29:45,15.08816151,0.0001375,53.2166,248.9117,91.1843,268.9306,-0.0003306,-5.542e-05,0.0,0 STARLINK-4300,1 53173U 22083AT  24133.68733278 -.00005542  00000-0 -33060-3 0  9994,2 53173  53.2166 248.9117 0001375  91.1843 268.9306 15.08816151101796,6917.953,95.439,540.77,538.867,0.0
53173.0,STARLINK-4300,PAYLOAD,2024-05-13 11:34:24,15.08829556,0.0001322,53.2153,245.3416,86.0492,274.0651,0.00060214,9.305e-05,0.0,0 STARLINK-4300,1 53173U 22083AT  24134.48222313  .00009305  00000-0  60214-3 0  9996,2 53173  53.2153 245.3416 0001322  86.0492 274.0651 15.08829556101277,6917.912,95.438,540.692,538.863,0.0
53173.0,STARLINK-4300,PAYLOAD,2024-05-13 16:20:33,15.08840025,0.0001597,53.216,244.4519,95.6489,264.4685,0.0010102,0.00015826,0.0,0 STARLINK-4300,1 53173U 22083AT  24134.68094408  .00015826  00000-0  10102-2 0  9995,2 53173  53.2160 244.4519 0001597  95.6489 264.4685 15.08840025101303,6917.88,95.438,540.85,538.641,0.0
53173.0,STARLINK-4300,PAYLOAD,2024-05-14 11:25:11,15.08851084,0.0002243,53.2159,240.883,90.7685,269.3565,0.00015177,2.129e-05,0.0,0 STARLINK-4300,1 53173U 22083AT  24135.47582297  .00002129  00000-0  15177-3 0  9991,2 53173  53.2159 240.8830 0002243  90.7685 269.3565 15.08851084102062,6917.847,95.437,541.263,538.16,0.0
53173.0,STARLINK-4300,PAYLOAD,2024-05-15 12:51:20,15.08840854,0.0001744,53.2172,236.1247,89.8805,270.2387,-0.00016337,-2.887e-05,0.0,0 STARLINK-4300,1 53173U 22083AT  24136.53565747 -.00002887  00000-0 -16337-3 0  9992,2 53173  53.2172 236.1247 0001744  89.8805 270.2387 15.08840854102229,6917.878,95.438,540.949,538.536,0.0
53173.0,STARLINK-4300,PAYLOAD,2024-05-15 14:26:43,15.08851317,0.0001718,53.2168,235.8276,107.4549,252.6631,0.00016733,2.377e-05,0.0,0 STARLINK-4300,1 53173U 22083AT  24136.60189554  .00002377  00000-0  16733-3 0  9990,2 53173  53.2168 235.8276 0001718 107.4549 252.6631 15.08851317101596,6917.846,95.437,540.899,538.522,0.0
53173.0,STARLINK-4300,PAYLOAD,2024-05-15 16:02:06,15.088528,0.0001699,53.2165,235.5302,112.1016,248.0157,0.00019333,2.791e-05,0.0,0 STARLINK-4300,1 53173U 22083AT  24136.66813425  .00002791  00000-0  19333-3 0  9996,2 53173  53.2165 235.5302 0001699 112.1016 248.0157 15.08852800102243,6917.841,95.437,540.882,538.531,0.0
53173.0,STARLINK-4300,PAYLOAD,2024-05-16 12:42:07,15.08847745,0.000128,53.2174,231.6625,80.5817,279.532,4.3058e-06,-2.19e-06,0.0,0 STARLINK-4300,1 53173U 22083AT  24137.52924953 -.00000219  00000-0  43058-5 0  9998,2 53173  53.2174 231.6625 0001280  80.5817 279.5320 15.08847745102378,6917.857,95.437,540.607,538.836,0.0
53173.0,STARLINK-4300,PAYLOAD,2024-05-17 12:32:55,15.08814022,0.0001424,53.2166,227.2037,84.3016,275.8138,-0.00055119,-9.043e-05,0.0,0 STARLINK-4300,1 53173U 22083AT  24138.52286143 -.00009043  00000-0 -55119-3 0  9995,2 53173  53.2166 227.2037 0001424  84.3016 275.8138 15.08814022102525,6917.96,95.439,540.81,538.84,0.0
53173.0,STARLINK-4300,PAYLOAD,2024-05-17 15:43:41,15.08813442,0.0001444,53.2157,226.6091,99.5154,260.6001,-0.00048783,-8.038e-05,0.0,0 STARLINK-4300,1 53173U 22083AT  24138.65534338 -.00008038  00000-0 -48783-3 0  9993,2 53173  53.2157 226.6091 0001444  99.5154 260.6001 15.08813442101908,6917.962,95.439,540.826,538.828,0.0
53173.0,STARLINK-4300,PAYLOAD,2024-05-18 12:23:42,15.08858937,0.0001308,53.2167,222.7418,70.7298,289.3836,0.00082204,0.00012826,0.0,0 STARLINK-4300,1 53173U 22083AT  24139.51646069  .00012826  00000-0  82204-3 0  9998,2 53173  53.2167 222.7418 0001308  70.7298 289.3836 15.08858937102675,6917.823,95.436,540.592,538.783,0.0
53173.0,STARLINK-4300,PAYLOAD,2024-05-18 21:55:59,15.088867,0.0001305,53.2158,220.9582,76.5426,283.5712,0.0011246,0.00017678,0.0,0 STARLINK-4300,1 53173U 22083AT  24139.91388234  .00017678  00000-0  11246-2 0  9996,2 53173  53.2158 220.9582 0001305  76.5426 283.5712 15.08886700102095,6917.738,95.435,540.505,538.7,0.0
53173.0,STARLINK-4300,PAYLOAD,2024-05-19 12:14:30,15.08811112,0.0001689,53.2168,218.2837,102.6393,257.4788,-0.00052308,-8.597e-05,0.0,0 STARLINK-4300,1 53173U 22083AT  24140.51007028 -.00008597  00000-0 -52308-3 0  9990,2 53173  53.2168 218.2837 0001689 102.6393 257.4788 15.08811112102186,6917.969,95.439,541.002,538.665,0.0
53173.0,STARLINK-4300,PAYLOAD,2024-05-19 15:25:16,15.08822736,0.0001403,53.2162,217.6872,105.2484,254.8664,-0.00027643,-4.682e-05,0.0,0 STARLINK-4300,1 53173U 22083AT  24140.64255013 -.00004682  00000-0 -27643-3 0  9998,2 53173  53.2162 217.6872 0001403 105.2484 254.8664 15.08822736102847,6917.933,95.439,540.769,538.828,0.0
53173.0,STARLINK-4300,PAYLOAD,2024-05-20 10:29:53,15.08863226,0.0001538,53.2169,214.1214,109.0634,251.0525,0.0017933,0.00028386,0.0,0 STARLINK-4300,1 53173U 22083AT  24141.43742804  .00028386  00000-0  17933-2 0  9990,2 53173  53.2169 214.1214 0001538 109.0634 251.0525 15.08863226102961,6917.809,95.436,540.738,538.61,0.0
53173.0,STARLINK-4300,PAYLOAD,2024-05-21 11:56:03,15.08853617,0.0001341,53.215,209.3653,135.8933,224.2166,0.00019931,2.887e-05,0.0,0 STARLINK-4300,1 53173U 22083AT  24142.49725752  .00002887  00000-0  19931-3 0  9999,2 53173  53.2150 209.3653 0001341 135.8933 224.2166 15.08853617103120,6917.839,95.437,540.631,538.776,0.0
53173.0,STARLINK-4300,PAYLOAD,2024-05-22 03:49:54,15.08843276,0.0001176,53.2152,206.3917,105.0284,255.0838,0.0002087,3.035e-05,0.0,0 STARLINK-4300,1 53173U 22083AT  24143.15966035  .00003035  00000-0  20870-3 0  9994,2 53173  53.2152 206.3917 0001176 105.0284 255.0838 15.08843276103225,6917.87,95.437,540.549,538.922,0.0
53173.0,STARLINK-4300,PAYLOAD,2024-05-22 11:46:50,15.0884683,0.0001286,53.2158,204.9028,87.0067,273.1072,5.3061e-05,5.57e-06,0.0,0 STARLINK-4300,1 53173U 22083AT  24143.49086062  .00000557  00000-0  53061-4 0  9999,2 53173  53.2158 204.9028 0001286  87.0067 273.1072 15.08846830102632,6917.86,95.437,540.614,538.835,0.0
53173.0,STARLINK-4300,PAYLOAD,2024-05-23 03:40:41,15.08841763,0.0001477,53.2157,201.9299,77.3893,282.7264,-1.8263e-05,-5.79e-06,0.0,0 STARLINK-4300,1 53173U 22083AT  24144.15326301 -.00000579  00000-0 -18263-4 0  9997,2 53173  53.2157 201.9299 0001477  77.3893 282.7264 15.08841763103370,6917.875,95.437,540.762,538.718,0.0
53173.0,STARLINK-4300,PAYLOAD,2024-05-23 10:02:15,15.08834645,0.0001454,53.216,200.739,75.8269,284.2885,5.3165e-05,5.58e-06,0.0,0 STARLINK-4300,1 53173U 22083AT  24144.41822928  .00000558  00000-0  53165-4 0  9997,2 53173  53.2160 200.7390 0001454  75.8269 284.2885 15.08834645103410,6917.897,95.438,540.768,538.756,0.0
53173.0,STARLINK-4300,PAYLOAD,2024-05-24 09:53:01,15.08854005,0.0001516,53.2153,196.2778,74.4734,285.6425,0.00025656,3.799e-05,0.0,0 STARLINK-4300,1 53173U 22083AT  24145.41182026  .00003799  00000-0  25656-3 0  9999,2 53173  53.2153 196.2778 0001516  74.4734 285.6425 15.08854005103565,6917.838,95.437,540.751,538.654,0.0
53173.0,STARLINK-4300,PAYLOAD,2024-05-25 12:54:35,15.08833267,0.0001513,53.2156,191.2234,96.1734,263.9431,3.5065e-05,2.7e-06,0.0,0 STARLINK-4300,1 53173U 22083AT  24146.53790827  .00000270  00000-0  35065-4 0  9994,2 53173  53.2156 191.2234 0001513  96.1734 263.9431 15.08833267103730,6917.901,95.438,540.813,538.719,0.0
53173.0,STARLINK-4300,PAYLOAD,2024-05-26 09:34:35,15.08843191,0.0001425,53.2155,187.3572,92.9805,267.135,8.9211e-06,-1.46e-06,0.0,0 STARLINK-4300,1 53173U 22083AT  24147.39902399 -.00000146  00000-0  89211-5 0  9994,2 53173  53.2155 187.3572 0001425  92.9805 267.1350 15.08843191103862,6917.871,95.437,540.721,538.75,0.0
53173.0,STARLINK-4300,PAYLOAD,2024-05-26 19:06:47,15.0898132,0.0002048,53.2165,185.5856,228.827,131.2545,0.0020861,0.00033198,0.0,0 STARLINK-4300,1 53173U 22083AT  24147.79638670  .00033198  00000-0  20861-2 0  9991,2 53173  53.2165 185.5856 0002048 228.8270 131.2545 15.08981320103927,6917.448,95.429,540.73,537.897,0.0
53173.0,STARLINK-4300,PAYLOAD,2024-05-27 03:03:52,15.08794656,0.0001483,53.2165,184.0968,76.7983,283.3175,-0.00029182,-4.923e-05,0.0,0 STARLINK-4300,1 53173U 22083AT  24148.12768779 -.00004923  00000-0 -29182-3 0  9995,2 53173  53.2165 184.0968 0001483  76.7983 283.3175 15.08794656103975,6918.019,95.44,540.91,538.858,0.0
53173.0,STARLINK-4300,PAYLOAD,2024-05-27 07:50:00,15.08831852,0.000189,53.2167,183.1935,129.7316,230.3842,0.00014321,1.991e-05,0.0,0 STARLINK-4300,1 53173U 22083AT  24148.32638907  .00001991  00000-0  14321-3 0  9995,2 53173  53.2167 183.1935 0001890 129.7316 230.3842 15.08831852104000,6917.905,95.438,541.078,538.463,0.0
53173.0,STARLINK-4300,PAYLOAD,2024-05-27 18:57:41,15.08838325,0.0001548,53.2156,181.1126,104.0476,256.0689,0.00010947,1.455e-05,0.0,0 STARLINK-4300,1 53173U 22083AT  24148.79006695  .00001455  00000-0  10947-3 0  9994,2 53173  53.2156 181.1126 0001548 104.0476 256.0689 15.08838325103433,6917.886,95.438,540.821,538.68,0.0
53173.0,STARLINK-4300,PAYLOAD,2024-05-28 09:16:10,15.08841358,0.000142,53.216,178.4355,99.8873,260.228,9.5926e-05,1.239e-05,0.0,0 STARLINK-4300,1 53173U 22083AT  24149.38622709  .00001239  00000-0  95926-4 0  9991,2 53173  53.2160 178.4355 0001420  99.8873 260.2280 15.08841358104167,6917.876,95.437,540.724,538.759,0.0
